[{"OBJECT_NAME":"ONEWEB-0258","OBJECT_ID":"2021-060K","EPOCH":"2026-04-25T06:52:30.222624","MEAN_MOTION":13.16594463,"ECCENTRICITY":0.0001777,"INCLINATION":87.9081,"RA_OF_ASC_NODE":239.2887,"ARG_OF_PERICENTER":99.4241,"MEAN_ANOMALY":260.7091,"EPHEMERIS_TYPE":0,"CLASSIFICATION_TYPE":"U","NORAD_CAT_ID":48976,"ELEMENT_SET_NO":999,"REV_AT_EPOCH":23263,"BSTAR":-0.00016114000000000002,"MEAN_MOTION_DOT":-4.9e-07,"MEAN_MOTION_DDOT":0.0},{"OBJECT_NAME":"ONEWEB-0259","OBJECT_ID":"2021-060L","EPOCH":"2026-04-25T06:43:22.659168","MEAN_MOTION":13.16596492,"ECCENTRICITY":0.000175,"INCLINATION":87.9084,"RA_OF_ASC_NODE":239.2897,"ARG_OF_PERICENTER":96.7261,"MEAN_ANOMALY":263.407,"EPHEMERIS_TYPE":0,"CLASSIFICATION_TYPE":"U","NORAD_CAT_ID":48977,"ELEMENT_SET_NO":999,"REV_AT_EPOCH":23266,"BSTAR":5.806900000000001e-05,"MEAN_MOTION_DOT":3.5e-07,"MEAN_MOTION_DDOT":0.0},{"OBJECT_NAME":"ONEWEB-0260","OBJECT_ID":"2021-060M","EPOCH":"2026-04-25T06:30:50.695776","MEAN_MOTION":13.16594767,"ECCENTRICITY":0.0002204,"INCLINATION":87.9069,"RA_OF_ASC_NODE":239.2972,"ARG_OF_PERICENTER":108.9598,"MEAN_ANOMALY":251.1772,"EPHEMERIS_TYPE":0,"CLASSIFICATION_TYPE":"U","NORAD_CAT_ID":48978,"ELEMENT_SET_NO":999,"REV_AT_EPOCH":23264,"BSTAR":0.00011358000000000001,"MEAN_MOTION_DOT":5.6e-07,"MEAN_MOTION_DDOT":0.0},{"OBJECT_NAME":"ONEWEB-0261","OBJECT_ID":"2021-060N","EPOCH":"2026-04-25T02:08:38.571648","MEAN_MOTION":13.16596477,"ECCENTRICITY":0.0002131,"INCLINATION":87.9075,"RA_OF_ASC_NODE":239.3308,"ARG_OF_PERICENTER":94.6036,"MEAN_ANOMALY":265.5339,"EPHEMERIS_TYPE":0,"CLASSIFICATION_TYPE":"U","NORAD_CAT_ID":48979,"ELEMENT_SET_NO":999,"REV_AT_EPOCH":23267,"BSTAR":0.00014281,"MEAN_MOTION_DOT":6.7e-07,"MEAN_MOTION_DDOT":0.0},{"OBJECT_NAME":"ONEWEB-0262","OBJECT_ID":"2021-060P","EPOCH":"2026-04-25T07:08:28.505760","MEAN_MOTION":13.1659398,"ECCENTRICITY":0.0001679,"INCLINATION":87.9083,"RA_OF_ASC_NODE":239.274,"ARG_OF_PERICENTER":93.8082,"MEAN_ANOMALY":266.3241,"EPHEMERIS_TYPE":0,"CLASSIFICATION_TYPE":"U","NORAD_CAT_ID":48980,"ELEMENT_SET_NO":999,"REV_AT_EPOCH":23266,"BSTAR":-7.0539e-05,"MEAN_MOTION_DOT":-1.4e-07,"MEAN_MOTION_DDOT":0.0},{"OBJECT_NAME":"ONEWEB-0263","OBJECT_ID":"2021-060Q","EPOCH":"2026-04-25T06:04:37.203168","MEAN_MOTION":13.16594414,"ECCENTRICITY":0.0002009,"INCLINATION":87.9079,"RA_OF_ASC_NODE":239.294,"ARG_OF_PERICENTER":92.1837,"MEAN_ANOMALY":267.9524,"EPHEMERIS_TYPE":0,"CLASSIFICATION_TYPE":"U","NORAD_CAT_ID":48981,"ELEMENT_SET_NO":999,"REV_AT_EPOCH":23262,"BSTAR":0.00039338000000000003,"MEAN_MOTION_DOT":1.63e-06,"MEAN_MOTION_DDOT":0.0},{"OBJECT_NAME":"ONEWEB-0264","OBJECT_ID":"2021-060R","EPOCH":"2026-04-25T01:29:54.226752","MEAN_MOTION":13.16595614,"ECCENTRICITY":0.0002072,"INCLINATION":87.9079,"RA_OF_ASC_NODE":239.3352,"ARG_OF_PERICENTER":100.2868,"MEAN_ANOMALY":259.8497,"EPHEMERIS_TYPE":0,"CLASSIFICATION_TYPE":"U","NORAD_CAT_ID":48982,"ELEMENT_SET_NO":999,"REV_AT_EPOCH":23260,"BSTAR":-0.00013945,"MEAN_MOTION_DOT":-4e-07,"MEAN_MOTION_DDOT":0.0},{"OBJECT_NAME":"ONEWEB-0266","OBJECT_ID":"2021-060T","EPOCH":"2026-04-24T20:32:22.467840","MEAN_MOTION":13.1659473,"ECCENTRICITY":0.0001768,"INCLINATION":87.9078,"RA_OF_ASC_NODE":239.3667,"ARG_OF_PERICENTER":102.8126,"MEAN_ANOMALY":257.3202,"EPHEMERIS_TYPE":0,"CLASSIFICATION_TYPE":"U","NORAD_CAT_ID":48984,"ELEMENT_SET_NO":999,"REV_AT_EPOCH":23256,"BSTAR":0.00013554,"MEAN_MOTION_DOT":6.5e-07,"MEAN_MOTION_DDOT":0.0},{"OBJECT_NAME":"ONEWEB-0267","OBJECT_ID":"2021-060U","EPOCH":"2026-04-25T05:55:30.425952","MEAN_MOTION":13.16595364,"ECCENTRICITY":0.000203,"INCLINATION":87.9081,"RA_OF_ASC_NODE":239.285,"ARG_OF_PERICENTER":96.8729,"MEAN_ANOMALY":263.2633,"EPHEMERIS_TYPE":0,"CLASSIFICATION_TYPE":"U","NORAD_CAT_ID":48985,"ELEMENT_SET_NO":999,"REV_AT_EPOCH":23262,"BSTAR":0.00014431,"MEAN_MOTION_DOT":6.8e-07,"MEAN_MOTION_DDOT":0.0},{"OBJECT_NAME":"ONEWEB-0268","OBJECT_ID":"2021-060V","EPOCH":"2026-04-25T06:59:19.898592","MEAN_MOTION":13.16592842,"ECCENTRICITY":0.0001977,"INCLINATION":87.9083,"RA_OF_ASC_NODE":239.2855,"ARG_OF_PERICENTER":103.4885,"MEAN_ANOMALY":256.6466,"EPHEMERIS_TYPE":0,"CLASSIFICATION_TYPE":"U","NORAD_CAT_ID":48986,"ELEMENT_SET_NO":999,"REV_AT_EPOCH":23289,"BSTAR":-1.1400000000000001e-05,"MEAN_MOTION_DOT":8e-08,"MEAN_MOTION_DDOT":0.0},{"OBJECT_NAME":"ONEWEB-0269","OBJECT_ID":"2021-060W","EPOCH":"2026-04-25T06:31:59.913408","MEAN_MOTION":13.16593638,"ECCENTRICITY":0.0001914,"INCLINATION":87.9069,"RA_OF_ASC_NODE":239.2985,"ARG_OF_PERICENTER":107.5201,"MEAN_ANOMALY":252.6139,"EPHEMERIS_TYPE":0,"CLASSIFICATION_TYPE":"U","NORAD_CAT_ID":48987,"ELEMENT_SET_NO":999,"REV_AT_EPOCH":23266,"BSTAR":-3.897e-05,"MEAN_MOTION_DOT":-2e-08,"MEAN_MOTION_DDOT":0.0},{"OBJECT_NAME":"ONEWEB-0270","OBJECT_ID":"2021-060X","EPOCH":"2026-04-25T06:57:04.648896","MEAN_MOTION":13.16594207,"ECCENTRICITY":0.0001842,"INCLINATION":87.9083,"RA_OF_ASC_NODE":239.288,"ARG_OF_PERICENTER":89.3475,"MEAN_ANOMALY":270.7867,"EPHEMERIS_TYPE":0,"CLASSIFICATION_TYPE":"U","NORAD_CAT_ID":48988,"ELEMENT_SET_NO":999,"REV_AT_EPOCH":23270,"BSTAR":-0.00011043999999999999,"MEAN_MOTION_DOT":-2.9e-07,"MEAN_MOTION_DDOT":0.0},{"OBJECT_NAME":"ONEWEB-0271","OBJECT_ID":"2021-060Y","EPOCH":"2026-04-25T06:38:50.583840","MEAN_MOTION":13.16594441,"ECCENTRICITY":0.0001985,"INCLINATION":87.9078,"RA_OF_ASC_NODE":239.2815,"ARG_OF_PERICENTER":93.7251,"MEAN_ANOMALY":266.4107,"EPHEMERIS_TYPE":0,"CLASSIFICATION_TYPE":"U","NORAD_CAT_ID":48989,"ELEMENT_SET_NO":999,"REV_AT_EPOCH":23270,"BSTAR":9.2055e-05,"MEAN_MOTION_DOT":4.8e-07,"MEAN_MOTION_DDOT":0.0},{"OBJECT_NAME":"ONEWEB-0272","OBJECT_ID":"2021-060Z","EPOCH":"2026-04-25T07:10:44.270400","MEAN_MOTION":13.1659315,"ECCENTRICITY":0.0002175,"INCLINATION":87.908,"RA_OF_ASC_NODE":239.2881,"ARG_OF_PERICENTER":101.5638,"MEAN_ANOMALY":258.5737,"EPHEMERIS_TYPE":0,"CLASSIFICATION_TYPE":"U","NORAD_CAT_ID":48990,"ELEMENT_SET_NO":999,"REV_AT_EPOCH":23265,"BSTAR":-0.00016694,"MEAN_MOTION_DOT":-5.1e-07,"MEAN_MOTION_DDOT":0.0},{"OBJECT_NAME":"ONEWEB-0273","OBJECT_ID":"2021-060AA","EPOCH":"2026-04-25T02:14:22.321824","MEAN_MOTION":13.16594167,"ECCENTRICITY":0.0001884,"INCLINATION":87.9081,"RA_OF_ASC_NODE":239.3276,"ARG_OF_PERICENTER":96.4016,"MEAN_ANOMALY":263.733,"EPHEMERIS_TYPE":0,"CLASSIFICATION_TYPE":"U","NORAD_CAT_ID":48991,"ELEMENT_SET_NO":999,"REV_AT_EPOCH":23260,"BSTAR":0.00035862,"MEAN_MOTION_DOT":1.5e-06,"MEAN_MOTION_DDOT":0.0},{"OBJECT_NAME":"ONEWEB-0274","OBJECT_ID":"2021-060AB","EPOCH":"2026-04-25T06:29:42.266976","MEAN_MOTION":13.165938,"ECCENTRICITY":0.0002131,"INCLINATION":87.9073,"RA_OF_ASC_NODE":239.3001,"ARG_OF_PERICENTER":104.9783,"MEAN_ANOMALY":255.1584,"EPHEMERIS_TYPE":0,"CLASSIFICATION_TYPE":"U","NORAD_CAT_ID":48992,"ELEMENT_SET_NO":999,"REV_AT_EPOCH":23266,"BSTAR":5.6309e-05,"MEAN_MOTION_DOT":3.4e-07,"MEAN_MOTION_DDOT":0.0}]