ONEWEB-0258             
1 48976U 21060K   26115.28646091 -.00000049  00000+0 -16114-3 0  9994
2 48976  87.9081 239.2887 0001777  99.4241 260.7091 13.16594463232632
ONEWEB-0259             
1 48977U 21060L   26115.28012337  .00000035  00000+0  58069-4 0  9994
2 48977  87.9084 239.2897 0001750  96.7261 263.4070 13.16596492232664
ONEWEB-0260             
1 48978U 21060M   26115.27142009  .00000056  00000+0  11358-3 0  9996
2 48978  87.9069 239.2972 0002204 108.9598 251.1772 13.16594767232640
ONEWEB-0261             
1 48979U 21060N   26115.08933532  .00000067  00000+0  14281-3 0  9995
2 48979  87.9075 239.3308 0002131  94.6036 265.5339 13.16596477232670
ONEWEB-0262             
1 48980U 21060P   26115.29755215 -.00000014  00000+0 -70539-4 0  9993
2 48980  87.9083 239.2740 0001679  93.8082 266.3241 13.16593980232664
ONEWEB-0263             
1 48981U 21060Q   26115.25320837  .00000163  00000+0  39338-3 0  9992
2 48981  87.9079 239.2940 0002009  92.1837 267.9524 13.16594414232620
ONEWEB-0264             
1 48982U 21060R   26115.06243318 -.00000040  00000+0 -13945-3 0  9992
2 48982  87.9079 239.3352 0002072 100.2868 259.8497 13.16595614232604
ONEWEB-0266             
1 48984U 21060T   26114.85581560  .00000065  00000+0  13554-3 0  9995
2 48984  87.9078 239.3667 0001768 102.8126 257.3202 13.16594730232560
ONEWEB-0267             
1 48985U 21060U   26115.24687993  .00000068  00000+0  14431-3 0  9995
2 48985  87.9081 239.2850 0002030  96.8729 263.2633 13.16595364232627
ONEWEB-0268             
1 48986U 21060V   26115.29120253  .00000008  00000+0 -11400-4 0  9991
2 48986  87.9083 239.2855 0001977 103.4885 256.6466 13.16592842232899
ONEWEB-0269             
1 48987U 21060W   26115.27222122 -.00000002  00000+0 -38970-4 0  9994
2 48987  87.9069 239.2985 0001914 107.5201 252.6139 13.16593638232668
ONEWEB-0270             
1 48988U 21060X   26115.28963714 -.00000029  00000+0 -11044-3 0  9996
2 48988  87.9083 239.2880 0001842  89.3475 270.7867 13.16594207232706
ONEWEB-0271             
1 48989U 21060Y   26115.27697435  .00000048  00000+0  92055-4 0  9991
2 48989  87.9078 239.2815 0001985  93.7251 266.4107 13.16594441232707
ONEWEB-0272             
1 48990U 21060Z   26115.29912350 -.00000051  00000+0 -16694-3 0  9991
2 48990  87.9080 239.2881 0002175 101.5638 258.5737 13.16593150232655
ONEWEB-0273             
1 48991U 21060AA  26115.09331391  .00000150  00000+0  35862-3 0  9996
2 48991  87.9081 239.3276 0001884  96.4016 263.7330 13.16594167232605
ONEWEB-0274             
1 48992U 21060AB  26115.27062809  .00000034  00000+0  56309-4 0  9993
2 48992  87.9073 239.3001 0002131 104.9783 255.1584 13.16593800232660
